[{"OBJECT_NAME":"ONEWEB-0110","OBJECT_ID":"2020-100C","EPOCH":"2026-03-09T19:58:48.959040","MEAN_MOTION":13.12444072,"ECCENTRICITY":0.00017524,"INCLINATION":87.9004,"RA_OF_ASC_NODE":10.3602,"ARG_OF_PERICENTER":88.1833,"MEAN_ANOMALY":271.9496,"EPHEMERIS_TYPE":0,"CLASSIFICATION_TYPE":"U","NORAD_CAT_ID":47260,"ELEMENT_SET_NO":999,"REV_AT_EPOCH":25169,"BSTAR":0.0010112197,"MEAN_MOTION_DOT":3.77e-6,"MEAN_MOTION_DDOT":0},{"OBJECT_NAME":"SL-14 DEB","OBJECT_ID":"1991-056AD","EPOCH":"2026-03-08T03:27:34.637760","MEAN_MOTION":13.10892365,"ECCENTRICITY":0.00397963,"INCLINATION":82.5447,"RA_OF_ASC_NODE":227.9716,"ARG_OF_PERICENTER":206.3027,"MEAN_ANOMALY":153.6072,"EPHEMERIS_TYPE":0,"CLASSIFICATION_TYPE":"U","NORAD_CAT_ID":45291,"ELEMENT_SET_NO":999,"REV_AT_EPOCH":28933,"BSTAR":0.00088800904,"MEAN_MOTION_DOT":3.26e-6,"MEAN_MOTION_DDOT":0}]
